NORAD_CAT_ID,OBJECT_NAME,OBJECT_TYPE,EPOCH,MEAN_MOTION,ECCENTRICITY,INCLINATION,RA_OF_ASC_NODE,ARG_OF_PERICENTER,MEAN_ANOMALY,BSTAR,MEAN_MOTION_DOT,MEAN_MOTION_DDOT,TLE_LINE0,TLE_LINE1,TLE_LINE2,SEMIMAJOR_AXIS,PERIOD,APOGEE,PERIGEE,DECAYED
53290.0,STARLINK-4149,PAYLOAD,2024-07-05 20:41:20,15.08836086,0.0001438,53.2173,50.7236,91.3139,268.8018,-2.7701e-05,-7.29e-06,0.0,0 STARLINK-4149,1 53290U 22086BA  24187.86204752 -.00000729  00000-0 -27701-4 0  9994,2 53290  53.2173  50.7236 0001438  91.3139 268.8018 15.08836086108666,6917.892,95.438,540.752,538.763,0.0
53290.0,STARLINK-4149,PAYLOAD,2024-07-06 07:49:02,15.08852593,0.0001608,53.2183,48.6426,83.5729,276.5446,0.00039278,5.971e-05,0.0,0 STARLINK-4149,1 53290U 22086BA  24188.32572275  .00005971  00000-0  39278-3 0  9997,2 53290  53.2183  48.6426 0001608  83.5729 276.5446 15.08852593108731,6917.842,95.437,540.819,538.595,0.0
53290.0,STARLINK-4149,PAYLOAD,2024-07-06 14:10:35,15.08848848,0.0002338,53.217,47.4562,86.8596,273.2663,0.00037941,5.757e-05,0.0,0 STARLINK-4149,1 53290U 22086BA  24188.59068591  .00005757  00000-0  37941-3 0  9994,2 53290  53.2170  47.4562 0002338  86.8596 273.2663 15.08848848108939,6917.853,95.437,541.336,538.101,0.0
53290.0,STARLINK-4149,PAYLOAD,2024-07-06 20:32:08,15.08833205,0.0001391,53.2163,46.2647,88.8942,271.221,0.00019955,2.889e-05,0.0,0 STARLINK-4149,1 53290U 22086BA  24188.85564851  .00002889  00000-0  19955-3 0  9991,2 53290  53.2163  46.2647 0001391  88.8942 271.2210 15.08833205108811,6917.901,95.438,540.728,538.804,0.0
53290.0,STARLINK-4149,PAYLOAD,2024-07-06 22:07:31,15.08833505,0.000134,53.2165,45.9676,97.5257,262.5888,0.00028965,4.324e-05,0.0,0 STARLINK-4149,1 53290U 22086BA  24188.92188828  .00004324  00000-0  28965-3 0  9992,2 53290  53.2165  45.9676 0001340  97.5257 262.5888 15.08833505108986,6917.9,95.438,540.692,538.838,0.0
53290.0,STARLINK-4149,PAYLOAD,2024-07-07 07:39:49,15.08846077,0.000134,53.2163,44.1822,86.8066,273.308,0.00070625,0.00010972,0.0,0 STARLINK-4149,1 53290U 22086BA  24189.31932720  .00010972  00000-0  70625-3 0  9990,2 53290  53.2163  44.1822 0001340  86.8066 273.3080 15.08846077108888,6917.862,95.437,540.654,538.8,0.0
53290.0,STARLINK-4149,PAYLOAD,2024-07-07 20:22:55,15.08843905,0.0001368,53.2165,41.8017,86.4363,273.6786,0.00051721,7.954e-05,0.0,0 STARLINK-4149,1 53290U 22086BA  24189.84924817  .00007954  00000-0  51721-3 0  9998,2 53290  53.2165  41.8017 0001368  86.4363 273.6786 15.08843905108968,6917.868,95.437,540.68,538.787,0.0
53290.0,STARLINK-4149,PAYLOAD,2024-07-08 07:30:36,15.08855156,0.0001324,53.2163,39.7235,79.5775,280.5366,0.0008811,0.00013768,0.0,0 STARLINK-4149,1 53290U 22086BA  24190.31292596  .00013768  00000-0  88110-3 0  9996,2 53290  53.2163  39.7235 0001324  79.5775 280.5366 15.08855156109194,6917.834,95.437,540.615,538.783,0.0
53290.0,STARLINK-4149,PAYLOAD,2024-07-08 20:13:41,15.08843495,0.000159,53.2169,37.3401,105.2126,254.9042,0.00022365,3.274e-05,0.0,0 STARLINK-4149,1 53290U 22086BA  24190.84284699  .00003274  00000-0  22365-3 0  9990,2 53290  53.2169  37.3401 0001590 105.2126 254.9042 15.08843495109112,6917.87,95.437,540.835,538.635,0.0
53290.0,STARLINK-4149,PAYLOAD,2024-07-09 07:21:23,15.0884654,0.0001476,53.218,35.2586,99.4783,260.6376,0.00017579,2.511e-05,0.0,0 STARLINK-4149,1 53290U 22086BA  24191.30652579  .00002511  00000-0  17579-3 0  9992,2 53290  53.2180  35.2586 0001476  99.4783 260.6376 15.08846540109345,6917.86,95.437,540.746,538.704,0.0
53290.0,STARLINK-4149,PAYLOAD,2024-07-09 18:29:06,15.08839409,0.000169,53.2181,33.1773,112.8581,247.2589,7.9875e-05,9.83e-06,0.0,0 STARLINK-4149,1 53290U 22086BA  24191.77020952  .00000983  00000-0  79875-4 0  9996,2 53290  53.2181  33.1773 0001690 112.8581 247.2589 15.08839409109258,6917.882,95.438,540.916,538.578,0.0
53290.0,STARLINK-4149,PAYLOAD,2024-07-10 13:33:43,15.08837921,0.000175,53.2184,29.6079,117.6517,242.4653,0.00012734,1.739e-05,0.0,0 STARLINK-4149,1 53290U 22086BA  24192.56509233  .00001739  00000-0  12734-3 0  9998,2 53290  53.2184  29.6079 0001750 117.6517 242.4653 15.08837921109536,6917.887,95.438,540.962,538.541,0.0
53290.0,STARLINK-4149,PAYLOAD,2024-07-11 13:24:31,15.08840666,0.0001681,53.2175,25.146,117.7031,242.4132,0.00019586,2.831e-05,0.0,0 STARLINK-4149,1 53290U 22086BA  24193.55869260  .00002831  00000-0  19586-3 0  9993,2 53290  53.2175  25.1460 0001681 117.7031 242.4132 15.08840666109684,6917.878,95.438,540.906,538.58,0.0
53290.0,STARLINK-4149,PAYLOAD,2024-07-12 11:39:55,15.08842749,0.0002252,53.2192,20.9892,100.6387,259.4859,0.00015352,2.156e-05,0.0,0 STARLINK-4149,1 53290U 22086BA  24194.48605396  .00002156  00000-0  15352-3 0  9991,2 53290  53.2192  20.9892 0002252 100.6387 259.4859 15.08842749109829,6917.872,95.437,541.295,538.179,0.0
53290.0,STARLINK-4149,PAYLOAD,2024-07-12 19:36:50,15.0883662,0.0001223,53.2178,19.5031,94.814,265.2991,7.357e-06,-1.71e-06,0.0,0 STARLINK-4149,1 53290U 22086BA  24194.81725611 -.00000171  00000-0  73570-5 0  9995,2 53290  53.2178  19.5031 0001223  94.8140 265.2991 15.08836620109711,6917.891,95.438,540.602,538.91,0.0
53290.0,STARLINK-4149,PAYLOAD,2024-07-13 05:09:09,15.0885016,0.0001167,53.2164,17.7124,47.8171,312.292,0.00022262,3.258e-05,0.0,0 STARLINK-4149,1 53290U 22086BA  24195.21468920  .00003258  00000-0  22262-3 0  9995,2 53290  53.2164  17.7124 0001167  47.8171 312.2920 15.08850160109774,6917.849,95.437,540.522,538.907,0.0
53290.0,STARLINK-4149,PAYLOAD,2024-07-13 21:03:01,15.08838673,0.00014,53.2187,14.7449,83.0969,277.0182,7.4759e-05,9.02e-06,0.0,0 STARLINK-4149,1 53290U 22086BA  24195.87709778  .00000902  00000-0  74759-4 0  9998,2 53290  53.2187  14.7449 0001400  83.0969 277.0182 15.08838673109877,6917.884,95.438,540.718,538.781,0.0
53290.0,STARLINK-4149,PAYLOAD,2024-07-14 04:59:56,15.08848513,0.0001444,53.2191,13.2555,76.793,283.3223,0.00013462,1.856e-05,0.0,0 STARLINK-4149,1 53290U 22086BA  24196.20829268  .00001856  00000-0  13462-3 0  9995,2 53290  53.2191  13.2555 0001444  76.7930 283.3223 15.08848513109925,6917.854,95.437,540.718,538.72,0.0
53290.0,STARLINK-4149,PAYLOAD,2024-07-14 19:18:25,15.088438,0.0001361,53.2183,10.577,74.222,285.8922,0.00010291,1.35e-05,0.0,0 STARLINK-4149,1 53290U 22086BA  24196.80445620  .00001350  00000-0  10291-3 0  9993,2 53290  53.2183  10.5770 0001361  74.2220 285.8922 15.08843800110017,6917.869,95.437,540.675,538.792,0.0
53290.0,STARLINK-4149,PAYLOAD,2024-07-15 04:50:43,15.08856024,0.0001348,53.2187,8.7955,81.0642,279.0503,0.00027619,4.112e-05,0.0,0 STARLINK-4149,1 53290U 22086BA  24197.20188968  .00004112  00000-0  27619-3 0  9998,2 53290  53.2187   8.7955 0001348  81.0642 279.0503 15.08856024110072,6917.831,95.437,540.629,538.764,0.0
53290.0,STARLINK-4149,PAYLOAD,2024-07-15 11:12:16,15.08826086,0.0001298,53.2187,7.6061,88.7219,271.3921,-8.3187e-05,-1.611e-05,0.0,0 STARLINK-4149,1 53290U 22086BA  24197.46686330 -.00001611  00000-0 -83187-4 0  9998,2 53290  53.2187   7.6061 0001298  88.7219 271.3921 15.08826086110115,6917.923,95.438,540.686,538.89,0.0
53290.0,STARLINK-4149,PAYLOAD,2024-07-15 17:33:49,15.08836905,0.0001308,53.2171,6.4177,89.9689,270.1453,0.0001092,1.45e-05,0.0,0 STARLINK-4149,1 53290U 22086BA  24197.73181884  .00001450  00000-0  10920-3 0  9995,2 53290  53.2171   6.4177 0001308  89.9689 270.1453 15.08836905110151,6917.89,95.438,540.66,538.85,0.0
53290.0,STARLINK-4149,PAYLOAD,2024-07-16 04:41:30,15.08854329,0.0001352,53.2172,4.3359,91.0994,269.0153,0.00076544,0.0001192,0.0,0 STARLINK-4149,1 53290U 22086BA  24198.19549631  .00011920  00000-0  76544-3 0  9991,2 53290  53.2172   4.3359 0001352  91.0994 269.0153 15.08854329110225,6917.837,95.437,540.637,538.766,0.0
53290.0,STARLINK-4149,PAYLOAD,2024-07-16 17:24:36,15.08843117,0.0001599,53.2183,1.9546,105.0412,255.0757,0.00028421,4.238e-05,0.0,0 STARLINK-4149,1 53290U 22086BA  24198.72541886  .00004238  00000-0  28421-3 0  9999,2 53290  53.2183   1.9546 0001599 105.0412 255.0757 15.08843117110309,6917.871,95.437,540.842,538.63,0.0
53290.0,STARLINK-4149,PAYLOAD,2024-07-17 10:53:50,15.08829164,0.0001434,53.218,358.686,86.7314,273.3842,-0.00028751,-4.859e-05,0.0,0 STARLINK-4149,1 53290U 22086BA  24199.45405983 -.00004859  00000-0 -28751-3 0  9994,2 53290  53.2180 358.6860 0001434  86.7314 273.3842 15.08829164110417,6917.914,95.438,540.771,538.786,0.0
53290.0,STARLINK-4149,PAYLOAD,2024-07-17 14:04:37,15.08839039,0.0001431,53.2175,358.0916,85.0689,275.0467,0.00011618,1.561e-05,0.0,0 STARLINK-4149,1 53290U 22086BA  24199.58653954  .00001561  00000-0  11618-3 0  9990,2 53290  53.2175 358.0916 0001431  85.0689 275.0467 15.08839039110594,6917.883,95.438,540.738,538.758,0.0
53290.0,STARLINK-4149,PAYLOAD,2024-07-17 17:15:23,15.08841038,0.0001364,53.2182,357.4972,79.5453,280.5693,0.00064378,9.973e-05,0.0,0 STARLINK-4149,1 53290U 22086BA  24199.71901986  .00009973  00000-0  64378-3 0  9992,2 53290  53.2182 357.4972 0001364  79.5453 280.5693 15.08841038110458,6917.877,95.437,540.686,538.799,0.0
53290.0,STARLINK-4149,PAYLOAD,2024-07-18 10:44:38,15.08840966,0.0001498,53.2194,354.2266,82.0911,278.0251,0.00079743,0.00012426,0.0,0 STARLINK-4149,1 53290U 22086BA  24200.44766612  .00012426  00000-0  79743-3 0  9999,2 53290  53.2194 354.2266 0001498  82.0911 278.0251 15.08840966110561,6917.877,95.437,540.779,538.706,0.0
53290.0,STARLINK-4149,PAYLOAD,2024-07-18 13:55:24,15.08837072,0.0001468,53.219,353.6306,86.3991,273.7169,0.00050813,7.808e-05,0.0,0 STARLINK-4149,1 53290U 22086BA  24200.58014671  .00007808  00000-0  50813-3 0  9990,2 53290  53.2190 353.6306 0001468  86.3991 273.7169 15.08837072110741,6917.889,95.438,540.77,538.739,0.0
53290.0,STARLINK-4149,PAYLOAD,2024-07-18 17:06:11,15.088368,0.0001325,53.2185,353.0372,82.7598,277.3544,0.00045311,6.93e-05,0.0,0 STARLINK-4149,1 53290U 22086BA  24200.71262756  .00006930  00000-0  45311-3 0  9996,2 53290  53.2185 353.0372 0001325  82.7598 277.3544 15.08836800110607,6917.89,95.438,540.672,538.839,0.0
